NORAD_CAT_ID,OBJECT_NAME,OBJECT_TYPE,EPOCH,MEAN_MOTION,ECCENTRICITY,INCLINATION,RA_OF_ASC_NODE,ARG_OF_PERICENTER,MEAN_ANOMALY,BSTAR,MEAN_MOTION_DOT,MEAN_MOTION_DDOT,TLE_LINE0,TLE_LINE1,TLE_LINE2,SEMIMAJOR_AXIS,PERIOD,APOGEE,PERIGEE,DECAYED
53973.0,STARLINK-5156,PAYLOAD,2023-09-04 07:54:45,15.08847502,0.0001468,53.2185,22.1869,87.2488,272.8672,0.00016772,2.383e-05,0.0,0 STARLINK-5156,1 53973U 22125K   23247.32969261  .00002383  00000-0  16772-3 0  9997,2 53973  53.2185  22.1869 0001468  87.2488 272.8672 15.08847502 50837,6917.857,95.437,540.738,538.707,0.0
53973.0,STARLINK-5156,PAYLOAD,2023-09-04 14:16:19,15.08834103,0.0001397,53.2188,20.9977,88.3582,271.7571,2.6081e-05,1.27e-06,0.0,0 STARLINK-5156,1 53973U 22125K   23247.59466464  .00000127  00000-0  26081-4 0  9992,2 53973  53.2188  20.9977 0001397  88.3582 271.7571 15.08834103 50945,6917.898,95.438,540.73,538.797,0.0
53973.0,STARLINK-5156,PAYLOAD,2023-09-05 09:20:56,15.08835694,0.0001289,53.2196,17.4305,83.5884,276.5255,3.7494e-05,3.09e-06,0.0,0 STARLINK-5156,1 53973U 22125K   23248.38954595  .00000309  00000-0  37494-4 0  9999,2 53973  53.2196  17.4305 0001289  83.5884 276.5255 15.08835694 50995,6917.894,95.438,540.65,538.867,0.0
53973.0,STARLINK-5156,PAYLOAD,2023-09-06 01:14:47,15.08840025,0.00012,53.2189,14.4563,76.749,283.3636,0.00013607,1.878e-05,0.0,0 STARLINK-5156,1 53973U 22125K   23249.05194143  .00001878  00000-0  13607-3 0  9990,2 53973  53.2189  14.4563 0001200  76.7490 283.3636 15.08840025 51163,6917.88,95.438,540.575,538.915,0.0
53973.0,STARLINK-5156,PAYLOAD,2023-09-06 07:36:20,15.08838175,0.0001412,53.2205,13.2674,101.0533,259.0618,0.00014229,1.977e-05,0.0,0 STARLINK-5156,1 53973U 22125K   23249.31690344  .00001977  00000-0  14229-3 0  9994,2 53973  53.2205  13.2674 0001412 101.0533 259.0618 15.08838175 51137,6917.886,95.438,540.728,538.774,0.0
53973.0,STARLINK-5156,PAYLOAD,2023-09-06 18:44:02,15.08843633,0.0001203,53.219,11.1853,93.6776,266.4354,0.00017054,2.428e-05,0.0,0 STARLINK-5156,1 53973U 22125K   23249.78057949  .00002428  00000-0  17054-3 0  9994,2 53973  53.2190  11.1853 0001203  93.6776 266.4354 15.08843633 51201,6917.869,95.437,540.567,538.902,0.0
53973.0,STARLINK-5156,PAYLOAD,2023-09-07 01:05:35,15.08826504,0.0001145,53.2179,9.9947,87.1927,272.9196,0.00036824,5.575e-05,0.0,0 STARLINK-5156,1 53973U 22125K   23250.04554870  .00005575  00000-0  36824-3 0  9992,2 53973  53.2179   9.9947 0001145  87.1927 272.9196 15.08826504 51314,6917.922,95.438,540.579,538.995,0.0
53973.0,STARLINK-5156,PAYLOAD,2023-09-07 09:02:30,15.08837388,0.0001221,53.2187,8.5089,92.1357,267.9775,3.4637e-05,2.63e-06,0.0,0 STARLINK-5156,1 53973U 22125K   23250.37674722  .00000263  00000-0  34637-4 0  9997,2 53973  53.2187   8.5089 0001221  92.1357 267.9775 15.08837388 51299,6917.888,95.438,540.598,538.909,0.0
53973.0,STARLINK-5156,PAYLOAD,2023-09-07 16:59:26,15.08841355,0.0001535,53.2176,7.0212,90.7162,269.4007,4.677e-05,4.56e-06,0.0,0 STARLINK-5156,1 53973U 22125K   23250.70794498  .00000456  00000-0  46770-4 0  9992,2 53973  53.2176   7.0212 0001535  90.7162 269.4007 15.08841355 51413,6917.876,95.437,540.803,538.679,0.0
53973.0,STARLINK-5156,PAYLOAD,2023-09-08 13:39:27,15.08842648,0.0001528,53.2209,3.1568,92.3583,267.7584,6.5635e-05,7.57e-06,0.0,0 STARLINK-5156,1 53973U 22125K   23251.56906386  .00000757  00000-0  65635-4 0  9993,2 53973  53.2209   3.1568 0001528  92.3583 267.7584 15.08842648 51471,6917.872,95.437,540.794,538.68,0.0
53973.0,STARLINK-5156,PAYLOAD,2023-09-08 15:14:49,15.08847943,0.0001348,53.2185,2.8593,86.0375,274.0771,0.00012073,1.634e-05,0.0,0 STARLINK-5156,1 53973U 22125K   23251.63529791  .00001634  00000-0  12073-3 0  9994,2 53973  53.2185   2.8593 0001348  86.0375 274.0771 15.08847943 51480,6917.856,95.437,540.654,538.789,0.0
53973.0,STARLINK-5156,PAYLOAD,2023-09-08 20:00:58,15.08850958,0.0001415,53.2182,1.9655,91.6632,268.4522,0.00014455,2.014e-05,0.0,0 STARLINK-5156,1 53973U 22125K   23251.83401467  .00002014  00000-0  14455-3 0  9994,2 53973  53.2182   1.9655 0001415  91.6632 268.4522 15.08850958 51581,6917.847,95.437,540.691,538.733,0.0
53973.0,STARLINK-5156,PAYLOAD,2023-09-09 07:08:42,15.08825597,0.0001178,53.2196,359.8852,76.0979,284.0144,-6.0741e-05,-1.254e-05,0.0,0 STARLINK-5156,1 53973U 22125K   23252.29771762 -.00001254  00000-0 -60741-4 0  9990,2 53973  53.2196 359.8852 0001178  76.0979 284.0144 15.08825597 51650,6917.924,95.438,540.604,538.974,0.0
53973.0,STARLINK-5156,PAYLOAD,2023-09-09 13:30:14,15.08838439,0.0001398,53.218,358.6954,87.7642,272.351,2.5364e-05,1.16e-06,0.0,0 STARLINK-5156,1 53973U 22125K   23252.56266767  .00000116  00000-0  25364-4 0  9990,2 53973  53.2180 358.6954 0001398  87.7642 272.3510 15.08838439 51626,6917.885,95.438,540.717,538.783,0.0
53973.0,STARLINK-5156,PAYLOAD,2023-09-10 10:10:14,15.08851149,0.0001203,53.2186,354.8348,62.4597,297.6517,0.00016919,2.407e-05,0.0,0 STARLINK-5156,1 53973U 22125K   23253.42377514  .00002407  00000-0  16919-3 0  9999,2 53973  53.2186 354.8348 0001203  62.4597 297.6517 15.08851149 51823,6917.846,95.437,540.544,538.879,0.0
53973.0,STARLINK-5156,PAYLOAD,2023-09-10 13:20:59,15.08866253,0.0001393,53.2195,354.2343,93.0967,267.0185,0.0001756,2.51e-05,0.0,0 STARLINK-5156,1 53973U 22125K   23253.55624367  .00002510  00000-0  17560-3 0  9992,2 53973  53.2195 354.2343 0001393  93.0967 267.0185 15.08866253 51771,6917.8,95.436,540.629,538.701,0.0
53973.0,STARLINK-5156,PAYLOAD,2023-09-11 10:01:02,15.08839249,0.000114,53.218,350.3684,95.9231,264.1892,1.2396e-05,-9.1e-07,0.0,0 STARLINK-5156,1 53973U 22125K   23254.41738499 -.00000091  00000-0  12396-4 0  9996,2 53973  53.2180 350.3684 0001140  95.9231 264.1892 15.08839249 51975,6917.883,95.438,540.536,538.959,0.0
53973.0,STARLINK-5156,PAYLOAD,2023-09-11 13:11:48,15.08836723,0.0001179,53.2179,349.7738,98.8399,261.2727,-1.0805e-05,-4.6e-06,0.0,0 STARLINK-5156,1 53973U 22125K   23254.54986701 -.00000460  00000-0 -10805-4 0  9995,2 53973  53.2179 349.7738 0001179  98.8399 261.2727 15.08836723 51928,6917.89,95.438,540.571,538.94,0.0
53973.0,STARLINK-5156,PAYLOAD,2023-09-12 13:02:34,15.08854266,0.0001497,53.2192,345.3149,111.9668,248.1483,-5.5535e-05,-1.172e-05,0.0,0 STARLINK-5156,1 53973U 22125K   23255.54345693 -.00001172  00000-0 -55535-4 0  9995,2 53973  53.2192 345.3149 0001497 111.9668 248.1483 15.08854266 52072,6917.837,95.437,540.737,538.666,0.0
53973.0,STARLINK-5156,PAYLOAD,2023-09-13 09:42:35,15.08842447,0.0001522,53.2188,341.4512,108.3666,251.7492,0.00024205,3.567e-05,0.0,0 STARLINK-5156,1 53973U 22125K   23256.40458175  .00003567  00000-0  24205-3 0  9998,2 53973  53.2188 341.4512 0001522 108.3666 251.7492 15.08842447 52275,6917.873,95.437,540.791,538.685,0.0
53973.0,STARLINK-5156,PAYLOAD,2023-09-13 12:53:21,15.08846866,0.0001554,53.219,340.8567,108.4636,251.6525,0.00028942,4.322e-05,0.0,0 STARLINK-5156,1 53973U 22125K   23256.53705931  .00004322  00000-0  28942-3 0  9999,2 53973  53.2190 340.8567 0001554 108.4636 251.6525 15.08846866 52224,6917.859,95.437,540.799,538.649,0.0
53973.0,STARLINK-5156,PAYLOAD,2023-09-13 22:25:41,15.08831491,0.0001606,53.219,339.0728,105.9314,254.1855,1.8197e-05,2e-08,0.0,0 STARLINK-5156,1 53973U 22125K   23256.93450881  .00000002  00000-0  18197-4 0  9997,2 53973  53.2190 339.0728 0001606 105.9314 254.1855 15.08831491 52352,6917.906,95.438,540.882,538.66,0.0
53973.0,STARLINK-5156,PAYLOAD,2023-09-14 09:33:24,15.08819333,0.0002288,53.2197,336.9914,100.8204,259.3046,-0.00023003,-3.945e-05,0.0,0 STARLINK-5156,1 53973U 22125K   23257.39820098 -.00003945  00000-0 -23003-3 0  9991,2 53973  53.2197 336.9914 0002288 100.8204 259.3046 15.08819333 52429,6917.944,95.439,541.391,538.226,0.0
53973.0,STARLINK-5156,PAYLOAD,2023-09-14 12:44:10,15.08817274,0.0001561,53.2193,336.3965,99.9875,260.1294,-0.00024145,-4.126e-05,0.0,0 STARLINK-5156,1 53973U 22125K   23257.53068266 -.00004126  00000-0 -24145-3 0  9998,2 53973  53.2193 336.3965 0001561  99.9875 260.1294 15.08817274 52371,6917.95,95.439,540.895,538.735,0.0
53973.0,STARLINK-5156,PAYLOAD,2023-09-15 04:38:02,15.08825709,0.0001584,53.2196,333.4233,101.4189,258.6981,-1.4343e-05,-5.16e-06,0.0,0 STARLINK-5156,1 53973U 22125K   23258.19308641 -.00000516  00000-0 -14343-4 0  9994,2 53973  53.2196 333.4233 0001584 101.4189 258.6981 15.08825709 52548,6917.924,95.438,540.885,538.693,0.0
53973.0,STARLINK-5156,PAYLOAD,2023-09-15 09:24:11,15.08836597,0.0001398,53.2184,332.5305,103.6802,256.4346,0.00030007,4.49e-05,0.0,0 STARLINK-5156,1 53973U 22125K   23258.39180218  .00004490  00000-0  30007-3 0  9991,2 53973  53.2184 332.5305 0001398 103.6802 256.4346 15.08836597 52575,6917.891,95.438,540.723,538.789,0.0
53973.0,STARLINK-5156,PAYLOAD,2023-09-15 12:34:57,15.08841069,0.000133,53.2179,331.9349,101.0043,259.1099,0.00038347,5.82e-05,0.0,0 STARLINK-5156,1 53973U 22125K   23258.52428156  .00005820  00000-0  38347-3 0  9995,2 53973  53.2179 331.9349 0001330 101.0043 259.1099 15.08841069 52525,6917.877,95.437,540.662,538.822,0.0
53973.0,STARLINK-5156,PAYLOAD,2023-09-16 12:25:44,15.08858122,0.0001263,53.2165,327.474,95.4385,264.6751,0.00062255,9.639e-05,0.0,0 STARLINK-5156,1 53973U 22125K   23259.51788010  .00009639  00000-0  62255-3 0  9990,2 53973  53.2165 327.4740 0001263  95.4385 264.6751 15.08858122 52675,6917.825,95.436,540.564,538.816,0.0
53973.0,STARLINK-5156,PAYLOAD,2023-09-16 21:58:03,15.08852253,0.0001544,53.217,325.6925,73.7667,286.3495,0.00041739,6.363e-05,0.0,0 STARLINK-5156,1 53973U 22125K   23259.91532081  .00006363  00000-0  41739-3 0  9994,2 53973  53.2170 325.6925 0001544  73.7667 286.3495 15.08852253 52800,6917.843,95.437,540.776,538.64,0.0
53973.0,STARLINK-5156,PAYLOAD,2023-09-17 10:41:08,15.08852357,0.0001506,53.2173,323.3124,78.9161,281.2,0.0002478,3.659e-05,0.0,0 STARLINK-5156,1 53973U 22125K   23260.44523863  .00003659  00000-0  24780-3 0  9994,2 53973  53.2173 323.3124 0001506  78.9161 281.2000 15.08852357 52815,6917.843,95.437,540.749,538.666,0.0
